#dP2024 11 15  0  0  0.00000000      96 __u+U IGS20 FIT  IAC
## 2340 432000.00000000   900.00000000 60629 0.0000000000000
+   51   G02G03G04G05G06G07G08G09G10G11G12G13G14G15G16G17G18
+        G19G20G21G22G23G24G25G26G27G28G29G30G31G32R01R03R04
+        R05R07R08R09R11R12R14R15R16R17R18R19R20R21R22R24R26
+          0  0  0  0  0  0  0  0  0  0  0  0  0  0  0  0  0
+          0  0  0  0  0  0  0  0  0  0  0  0  0  0  0  0  0
++         5  5  5  5  5  5  5  5  5  5  7  5  5  6  7  5  5
++         0  5  5  5  5  4  6  7  5  6  6  4  5  5  6  7  6
++         8  7  6  6  5  5  4  7  8  5  6  5  6  5  5  6  7
++         0  0  0  0  0  0  0  0  0  0  0  0  0  0  0  0  0
++         0  0  0  0  0  0  0  0  0  0  0  0  0  0  0  0  0
%c M  cc GPS ccc cccc cccc cccc cccc ccccc ccccc ccccc ccccc
%c cc cc ccc ccc cccc cccc cccc cccc ccccc ccccc ccccc ccccc
%f  0.0000000  0.000000000  0.00000000000  0.000000000000000
%f  0.0000000  0.000000000  0.00000000000  0.000000000000000
%i    0    0    0    0      0      0      0      0         0
%i    0    0    0    0      0      0      0      0         0
/* INFORMATION & ANALYSIS CENTER (IAC)      ULTRA-RAPID DATA
/* S/V CLOCKS ARE ALIGNED TO GNSS TIME                      
/* G:C1WC2W R:C1PC2P E:C1XC5X C:C2IC6I J:C1CC2S             
/* PCV:IGS20_2317 OL/AL:FES2004  NONE     YN ORB:CoN CLK:CoN
*  2024 11 15 16  0  0.00000000
PG02 -20210.482706  -9417.648988  15171.479411   -313.938010
PG03 -16754.049928   3056.473079  20184.316866    600.569563
PG04 -26611.980414   -697.261372   1100.176524    479.941686
PG05   9678.106836  13143.607161 -21118.540466   -193.084276
PG06   2533.533689  22274.848148  14226.698121   -116.779154
PG07 -13921.627015   6336.343913 -21201.860012    -19.996719
PG08 -22744.753990  -7102.010407 -12307.410291    414.270382
PG09 -24334.090847   7192.599816  -8049.771292    444.925043
PG10   9696.319630 -24193.869921   4260.546657   -196.895983
PG11  12252.984830  23567.540411   1338.612384   -750.174860
PG12  15734.451399   2375.180843  20972.995801   -552.251854
PG13  15624.796104  13411.641007 -17141.095521    686.136976
PG14 -12669.386347  23197.525691    286.299658    540.358044
PG15  23380.976880   4652.763100 -12388.915054    228.111845
PG16  -4999.035584 -17463.675159 -19566.467506   -127.686787
PG17 -12149.563505  13470.000415  19881.997663    557.585677
PG18  12263.655642  -8510.599555 -21932.925491   -660.354678
PG19      0.000000      0.000000      0.000000 999999.999999
PG20   3148.075389  22457.036219 -13865.863931    368.714175
PG21 -20359.167118 -15092.561560   9983.748177     97.391868
PG22  -8209.254253  23984.410253   8828.934952    -79.604621
PG23  16255.782812 -18555.517168  -9493.455796    363.815685
PG24  20481.260716  11583.529254  12239.251471   -480.087363
PG25  17968.394464 -12137.579108  14808.301172    498.983421
PG26   1728.990782 -24193.324514 -10534.196509     25.214540
PG27 -13308.289213 -12993.117185 -19416.642003    -34.707373
PG28  -1390.925732 -21495.908127  15522.392146   -479.785833
PG29  25227.732688  -4179.438088  -7459.376288   -563.580051
PG30  -5723.587796  17306.242472 -19081.304989   -281.359423
PG31  -9455.319706 -23853.344797   5810.799897   -221.713288
PG32   8152.687331 -14789.687559  20671.087870   -573.334492
PR01 -12276.402852  14439.215892 -17072.771426    104.518285
PR03  19815.175088   -202.436621 -15978.241910    111.432685
PR04  23692.414123  -9409.469563   -409.970981    264.105734
PR05  15011.762288 -13690.760468  15409.091373    140.740236
PR07 -20142.354889    447.552976  15717.971254     95.044255
PR08 -23615.713506   9700.750025    283.349578     -6.252126
PR09  -3378.103608 -22800.053103 -11002.149384    220.713835
PR11 -11148.048735   8698.755412 -21217.945627      6.864250
PR12  -6107.548148  23867.664668  -6618.228549     47.272867
PR14   9741.013926   8659.659563  21931.559925     27.239727
PR15  11176.313889 -10466.910467  20418.098432     74.093803
PR16   6081.878851 -23827.633920   6849.790024     30.822526
PR17  21220.986088  12736.478805  -6257.516676    140.113539
PR18  16299.185167   1608.974088 -19515.784927    172.015205
PR19   5233.812846  -9194.978447 -23201.442080   -298.549973
PR20 -13130.952563 -18236.979585 -12085.155972   -121.976256
PR21 -21005.533644 -13423.313556   5337.302212   -151.539360
PR22 -15796.596317   -718.699230  20049.834138    -11.104749
PR24  14156.763714  17801.359151  11596.163646    -80.235916
PR26 -23752.315512   9062.762472   2002.477601   -133.499022
*  2024 11 15 16 15  0.00000000
PG02 -21051.374880 -10699.447843  12979.275798   -313.930165
PG03 -15753.430147    877.333078  21179.561964    600.578805
PG04 -26334.869855   -935.205112   3938.056291    479.947500
PG05   8692.726596  15245.028437 -20095.899932   -193.085604
PG06   1478.252810  20890.027956  16340.398360   -116.805428
PG07 -15307.962409   4235.485161 -20816.809439    -19.994632
PG08 -21270.725168  -7455.702200 -14514.730440    414.279521
PG09 -25107.568896   7025.788632  -5338.582686    444.940349
PG10  10010.432755 -24372.563196   1356.617396   -196.908968
PG11  11891.564498  23423.827594   4178.092845   -750.176310
PG12  14534.878154   4557.057387  21469.381395   -552.253636
PG13  13618.272740  13377.526331 -18800.057461    686.138385
PG14 -12890.219851  22931.744890  -2547.671827    540.365254
PG15  22004.603342   5208.659468 -14574.876269    228.116252
PG16  -3794.463434 -19195.472459 -18095.512094   -127.677846
PG17 -14258.899016  13392.293513  18469.523145    557.572708
PG18  13629.377859  -6407.106211 -21862.030234   -660.355038
PG19      0.000000      0.000000      0.000000 999999.999999
PG20   2550.883352  23808.493607 -11568.497921    368.714257
PG21 -20825.900663 -15898.605106   7418.065783     97.390737
PG22  -8805.602798  24562.831245   6163.206404    -79.607257
PG23  15911.310400 -17348.928125 -12032.232121    363.822849
PG24  21119.732898  12768.968216   9868.461588   -480.085397
PG25  17378.166031 -10344.840794  16729.404939    498.983129
PG26   2416.957151 -25058.440303  -7999.908159     25.202833
PG27 -11103.595381 -13251.167944 -20572.847809    -34.707229
PG28   -152.671637 -20064.206888  17387.017538   -479.796428
PG29  25915.014812  -3962.135720  -4708.291930   -563.577523
PG30  -7123.730702  15489.492555 -20157.437262   -281.352387
PG31  -8746.730440 -23289.104087   8511.281461   -221.712531
PG32  10415.345040 -14869.236349  19537.140700   -573.329708
PR01 -13988.658641  15406.310648 -14751.855521    104.518963
PR03  17845.793501    581.713085 -18143.320557    111.433235
PR04  23388.279380  -9471.716835  -3627.771732    264.107749
PR05  16550.595811 -14526.540949  12852.520697    140.740644
PR07 -18212.615103   -303.419159  17921.253558     95.045496
PR08 -23340.247034   9761.029392   3490.760602     -6.252285
PR09  -3396.977594 -23982.079180  -8115.124582    220.715907
PR11 -10878.494275   6026.919444 -22260.437916      6.864461
PR12  -5893.445295  22878.643830  -9615.676953     47.273327
PR14   9573.846028  11287.295386  20777.969884     27.240012
PR15  10893.425721  -7888.044181  21690.817551     74.093562
PR16   5848.168092 -22815.284597   9844.405950     30.822772
PR17  21799.109961  12924.771379  -3097.227489    140.116739
PR18  18216.459364   2880.975379 -17576.806794    172.017062
PR19   7485.975342  -7414.558420 -23222.161412   -298.549891
PR20 -11942.330152 -17065.895227 -14731.877037   -121.975900
PR21 -21491.687999 -13540.746353   2142.184136   -151.542637
PR22 -17710.181853  -2098.138306  18273.079932    -11.115038
PR24  12937.504971  16772.692126  14253.055489    -80.237675
PR26 -23282.263358   9026.306112   5185.704200   -133.498816
EOF
